[{"OBJECT_NAME":"STARLINK-5732","OBJECT_ID":"2023-020D","EPOCH":"2026-03-09T04:58:15.357216","MEAN_MOTION":15.02530703,"ECCENTRICITY":9.817e-5,"INCLINATION":43.0025,"RA_OF_ASC_NODE":7.5285,"ARG_OF_PERICENTER":258.253,"MEAN_ANOMALY":101.8203,"EPHEMERIS_TYPE":0,"CLASSIFICATION_TYPE":"U","NORAD_CAT_ID":55572,"ELEMENT_SET_NO":999,"REV_AT_EPOCH":16884,"BSTAR":-7.1304503e-5,"MEAN_MOTION_DOT":-1.166e-5,"MEAN_MOTION_DDOT":0},{"OBJECT_NAME":"COSMOS 397 DEB","OBJECT_ID":"1971-015D","EPOCH":"2026-03-09T13:45:21.862944","MEAN_MOTION":13.72086922,"ECCENTRICITY":0.0619447,"INCLINATION":65.8363,"RA_OF_ASC_NODE":222.312,"ARG_OF_PERICENTER":314.4555,"MEAN_ANOMALY":40.7385,"EPHEMERIS_TYPE":0,"CLASSIFICATION_TYPE":"U","NORAD_CAT_ID":5010,"ELEMENT_SET_NO":999,"REV_AT_EPOCH":63519,"BSTAR":0.00085725,"MEAN_MOTION_DOT":3.091e-5,"MEAN_MOTION_DDOT":0}]
